{
    "links": {
        "self": "http://www.neowsapp.com/rest/v1/neo/3836894?api_key=iIulBulltgU6a56xZRHN4H3l9WmuAYTsLGpBGhQ2"
    },
    "id": "3836894",
    "neo_reference_id": "3836894",
    "name": "(2018 XG4)",
    "designation": "2018 XG4",
    "nasa_jpl_url": "http://ssd.jpl.nasa.gov/sbdb.cgi?sstr=3836894",
    "absolute_magnitude_h": 27.6,
    "estimated_diameter": {
        "kilometers": {
            "estimated_diameter_min": 0.0080270317,
            "estimated_diameter_max": 0.0179489885
        },
        "meters": {
            "estimated_diameter_min": 8.0270316728,
            "estimated_diameter_max": 17.948988478
        },
        "miles": {
            "estimated_diameter_min": 0.0049877647,
            "estimated_diameter_max": 0.0111529809
        },
        "feet": {
            "estimated_diameter_min": 26.3354065935,
            "estimated_diameter_max": 58.8877593581
        }
    },
    "is_potentially_hazardous_asteroid": false,
    "close_approach_data": [
        {
            "close_approach_date": "2018-12-14",
            "close_approach_date_full": "2018-Dec-14 17:50",
            "epoch_date_close_approach": 1544809800000,
            "relative_velocity": {
                "kilometers_per_second": "7.5805993283",
                "kilometers_per_hour": "27290.1575819246",
                "miles_per_hour": "16957.042637502"
            },
            "miss_distance": {
                "astronomical": "0.0058646384",
                "lunar": "2.2813443376",
                "kilometers": "877337.412960208",
                "miles": "545152.1893705504"
            },
            "orbiting_body": "Moon"
        },
        {
            "close_approach_date": "2018-12-15",
            "close_approach_date_full": "2018-Dec-15 01:27",
            "epoch_date_close_approach": 1544837220000,
            "relative_velocity": {
                "kilometers_per_second": "7.7801916253",
                "kilometers_per_hour": "28008.6898511069",
                "miles_per_hour": "17403.5106466503"
            },
            "miss_distance": {
                "astronomical": "0.0069919581",
                "lunar": "2.7198717009",
                "kilometers": "1045982.038889247",
                "miles": "649943.1007037286"
            },
            "orbiting_body": "Earth"
        }
    ],
    "orbital_data": {
        "orbit_id": "2",
        "orbit_determination_date": "2018-12-19 07:19:46",
        "first_observation_date": "2018-12-14",
        "last_observation_date": "2018-12-15",
        "data_arc_in_days": 1,
        "observations_used": 39,
        "orbit_uncertainty": "7",
        "minimum_orbit_intersection": ".00529274",
        "jupiter_tisserand_invariant": "3.716",
        "epoch_osculation": "2459000.5",
        "eccentricity": ".4961824200682051",
        "semi_major_axis": "1.957528896354946",
        "inclination": "6.546064786895794",
        "ascending_node_longitude": "261.1332726650016",
        "orbital_period": "1000.370092487346",
        "perihelion_distance": ".9862374712081066",
        "perihelion_argument": "171.4033180377588",
        "aphelion_distance": "2.928820321501786",
        "perihelion_time": "2459459.553901089449",
        "mean_anomaly": "194.8017342448771",
        "mean_motion": ".3598668159949552",
        "equinox": "J2000",
        "orbit_class": {
            "orbit_class_type": "APO",
            "orbit_class_description": "Near-Earth asteroid orbits which cross the Earth’s orbit similar to that of 1862 Apollo",
            "orbit_class_range": "a (semi-major axis) > 1.0 AU; q (perihelion) < 1.017 AU"
        }
    },
    "is_sentry_object": false
}